ONEWEB-0605             
1 54669U 22166AD  26178.20557088  .00000075  00000+0  14926-3 0  9992
2 54669  87.9248 241.9936 0002371  83.5620 276.5784 13.21827583172831
ONEWEB-0606             
1 54670U 22166AE  26178.22741360  .00001464  00000+0  35126-2 0  9991
2 54670  87.9211 241.9987 0002028 105.9043 254.2315 13.21837946172899
ONEWEB-0607             
1 54671U 22166AF  26178.19379904  .00000124  00000+0  26865-3 0  9992
2 54671  87.9254 241.9799 0001933  95.2540 264.8814 13.21825185172865
ONEWEB-0608             
1 54672U 22166AG  26178.20049678  .00000097  00000+0  20292-3 0  9994
2 54672  87.9259 241.9758 0002074  83.2364 276.9006 13.21828730172871
ONEWEB-0610             
1 54673U 22166AH  26178.18034096  .00000056  00000+0  10385-3 0  9997
2 54673  87.9247 241.9931 0001801  81.1140 279.0197 13.21825541172779
ONEWEB-0611             
1 54674U 22166AJ  26178.17359299  .00000100  00000+0  21012-3 0  9991
2 54674  87.9249 241.9903 0002145 101.3527 258.7848 13.21825956172763
ONEWEB-0612             
1 54675U 22166AK  26178.18707279  .00000064  00000+0  12293-3 0  9998
2 54675  87.9260 241.9842 0002030  93.5685 266.5681 13.21826177172756
ONEWEB-0615             
1 54676U 22166AL  26178.16687970  .00000068  00000+0  13303-3 0  9999
2 54676  87.9251 242.0021 0002033 105.5611 254.5747 13.21827600172767
ONEWEB-0655             
1 54677U 22166AM  26178.21902407  .00000058  00000+0  10943-3 0  9997
2 54677  87.9248 241.9926 0001797  97.4992 262.6346 13.21827553172765
ONEWEB-0659             
1 54678U 22166AN  26178.16017028 -.00000071  00000+0 -20440-3 0  9998
2 54678  87.9247 242.0041 0002236  98.0636 262.0752 13.21852683172842
ONEWEB-0685             
1 54679U 22166AP  26178.16007780 -.00000042  00000+0 -13282-3 0  9997
2 54679  87.9244 241.9960 0001910  87.8386 272.2967 13.21847643172733
ONEWEB-0712             
1 54680U 22166AQ  26178.16761441  .00000025  00000+0  32252-4 0  9998
2 54680  87.9091 226.7929 0001611  99.1963 260.9350 13.16594924173372
ONEWEB-0714             
1 54681U 22166AR  26178.16519953  .00000085  00000+0  17399-3 0  9998
2 54681  87.9248 241.9928 0001797 102.9991 257.1344 13.21825462172857
ONEWEB-0532             
1 55140U 23004A   26178.05606804 -.00000028  00000+0 -10452-3 0  9993
2 55140  87.9131   3.9008 0002200  85.7283 274.4099 13.17647801168887
ONEWEB-0533             
1 55141U 23004B   26177.98704465  .00000176  00000+0  45496-3 0  9995
2 55141  87.8947 348.7211 0001734  86.5444 273.5883 13.12445205169349
ONEWEB-0541             
1 55142U 23004C   26178.10087894  .00000210  00000+0  55564-3 0  9997
2 55142  87.8890  19.0850 0001985  90.7821 269.3534 13.11414431167247
ONEWEB-0543             
1 55143U 23004D   26178.17957443 -.00000055  00000+0 -17277-3 0  9999
2 55143  87.9167 333.4809 0001643  98.6719 261.4599 13.18685407171011
ONEWEB-0544             
1 55144U 23004E   26178.17282841 -.00000004  00000+0 -41998-4 0  9995
2 55144  87.9168 333.4818 0001841 101.6260 258.5079 13.18685905171012
ONEWEB-0560             
1 55145U 23004F   26178.16607370 -.00000006  00000+0 -46700-4 0  9991
2 55145  87.9168 333.4726 0001788 103.9211 256.2120 13.18687316171023
ONEWEB-0565             
1 55146U 23004G   26178.15934428  .00000073  00000+0  15300-3 0  9991
2 55146  87.9158 333.5010 0002208 101.5006 258.6374 13.18685740171019
ONEWEB-0567             
1 55147U 23004H   26178.15259941  .00000013  00000+0 -31632-6 0  9996
2 55147  87.9166 333.4874 0002075 103.5188 256.6175 13.18686067171011
ONEWEB-0569             
1 55148U 23004J   26178.13974731  .00000153  00000+0  38324-3 0  9992
2 55148  87.8971 318.2386 0002091 123.8118 236.3211 13.13469829171487
ONEWEB-0570             
1 55149U 23004K   26178.14416154  .00000027  00000+0  36086-4 0  9998
2 55149  87.9166 333.4867 0002247  91.1034 269.0355 13.18686326171003
ONEWEB-0571             
1 55150U 23004L   26177.98566417 -.00000048  00000+0 -15378-3 0  9994
2 55150  87.9167 333.5178 0002725 118.5388 241.6019 13.18684884170996
ONEWEB-0572             
1 55151U 23004M   26178.08729442 -.00000016  00000+0 -75047-4 0  9991
2 55151  87.9130   3.8956 0002039  93.5329 266.6035 13.17648972168789
ONEWEB-0573             
1 55152U 23004N   26178.13066903 -.00000059  00000+0 -18197-3 0  9993
2 55152  87.9169 333.4904 0002549 109.5830 250.5577 13.18687006171002
ONEWEB-0588             
1 55153U 23004P   26178.12393237 -.00000078  00000+0 -23125-3 0  9994
2 55153  87.9166 333.4918 0002356  92.1050 268.0352 13.18685114171005
ONEWEB-0598             
1 55154U 23004Q   26178.07884524  .00000487  00000+0  13395-2 0  9992
2 55154  87.8881  19.0989 0002070 108.0909 252.0444 13.11418035167196
ONEWEB-0599             
1 55155U 23004R   26178.04848411  .00000002  00000+0 -28928-4 0  9999
2 55155  87.9132   3.9019 0001684  94.8707 265.2617 13.17649499168781
ONEWEB-0614             
1 55156U 23004S   26178.07375377  .00000245  00000+0  65625-3 0  9991
2 55156  87.8880  19.1087 0001973  81.7710 278.3642 13.11418740167133
ONEWEB-0616             
1 55157U 23004T   26178.01473730  .00000009  00000+0 -99725-5 0  9997
2 55157  87.9133   3.9124 0001010 104.8210 255.3033 13.17649393168993
