OBJECT_NAME,OBJECT_ID,EPOCH,MEAN_MOTION,ECCENTRICITY,INCLINATION,RA_OF_ASC_NODE,ARG_OF_PERICENTER,MEAN_ANOMALY,EPHEMERIS_TYPE,CLASSIFICATION_TYPE,NORAD_CAT_ID,ELEMENT_SET_NO,REV_AT_EPOCH,BSTAR,MEAN_MOTION_DOT,MEAN_MOTION_DDOT
ONEWEB-0605,2022-166AD,2026-06-27T04:56:01.324032,13.21827583,.0002371,87.9248,241.9936,83.5620,276.5784,0,U,54669,999,17283,.14926E-3,.75E-6,0
ONEWEB-0606,2022-166AE,2026-06-27T05:27:28.535040,13.21837946,.0002028,87.9211,241.9987,105.9043,254.2315,0,U,54670,999,17289,.35126E-2,.1464E-4,0
ONEWEB-0607,2022-166AF,2026-06-27T04:39:04.237056,13.21825185,.0001933,87.9254,241.9799,95.2540,264.8814,0,U,54671,999,17286,.26865E-3,.124E-5,0
ONEWEB-0608,2022-166AG,2026-06-27T04:48:42.921792,13.21828730,.0002074,87.9259,241.9758,83.2364,276.9006,0,U,54672,999,17287,.20292E-3,.97E-6,0
ONEWEB-0610,2022-166AH,2026-06-27T04:19:41.458944,13.21825541,.0001801,87.9247,241.9931,81.1140,279.0197,0,U,54673,999,17277,.10385E-3,.56E-6,0
ONEWEB-0611,2022-166AJ,2026-06-27T04:09:58.434336,13.21825956,.0002145,87.9249,241.9903,101.3527,258.7848,0,U,54674,999,17276,.21012E-3,.1E-5,0
ONEWEB-0612,2022-166AK,2026-06-27T04:29:23.089056,13.21826177,.000203,87.9260,241.9842,93.5685,266.5681,0,U,54675,999,17275,.12293E-3,.64E-6,0
ONEWEB-0615,2022-166AL,2026-06-27T04:00:18.406080,13.21827600,.0002033,87.9251,242.0021,105.5611,254.5747,0,U,54676,999,17276,.13303E-3,.68E-6,0
ONEWEB-0655,2022-166AM,2026-06-27T05:15:23.679648,13.21827553,.0001797,87.9248,241.9926,97.4992,262.6346,0,U,54677,999,17276,.10943E-3,.58E-6,0
ONEWEB-0659,2022-166AN,2026-06-27T03:50:38.712192,13.21852683,.0002236,87.9247,242.0041,98.0636,262.0752,0,U,54678,999,17284,-.2044E-3,-.71E-6,0
ONEWEB-0685,2022-166AP,2026-06-27T03:50:30.721920,13.21847643,.000191,87.9244,241.9960,87.8386,272.2967,0,U,54679,999,17273,-.13282E-3,-.42E-6,0
ONEWEB-0712,2022-166AQ,2026-06-27T04:01:21.885024,13.16594924,.0001611,87.9091,226.7929,99.1963,260.9350,0,U,54680,999,17337,.32252E-4,.25E-6,0
ONEWEB-0714,2022-166AR,2026-06-27T03:57:53.239392,13.21825462,.0001797,87.9248,241.9928,102.9991,257.1344,0,U,54681,999,17285,.17399E-3,.85E-6,0
ONEWEB-0532,2023-004A,2026-06-27T01:20:44.278656,13.17647801,.00022,87.9131,3.9008,85.7283,274.4099,0,U,55140,999,16888,-.10452E-3,-.28E-6,0
ONEWEB-0533,2023-004B,2026-06-26T23:41:20.657760,13.12445205,.0001734,87.8947,348.7211,86.5444,273.5883,0,U,55141,999,16934,.45496E-3,.176E-5,0
ONEWEB-0541,2023-004C,2026-06-27T02:25:15.940416,13.11414431,.0001985,87.8890,19.0850,90.7821,269.3534,0,U,55142,999,16724,.55564E-3,.21E-5,0
ONEWEB-0543,2023-004D,2026-06-27T04:18:35.230752,13.18685407,.0001643,87.9167,333.4809,98.6719,261.4599,0,U,55143,999,17101,-.17277E-3,-.55E-6,0
ONEWEB-0544,2023-004E,2026-06-27T04:08:52.374624,13.18685905,.0001841,87.9168,333.4818,101.6260,258.5079,0,U,55144,999,17101,-.41998E-4,-.4E-7,0
ONEWEB-0560,2023-004F,2026-06-27T03:59:08.767680,13.18687316,.0001788,87.9168,333.4726,103.9211,256.2120,0,U,55145,999,17102,-.467E-4,-.6E-7,0
ONEWEB-0565,2023-004G,2026-06-27T03:49:27.345792,13.18685740,.0002208,87.9158,333.5010,101.5006,258.6374,0,U,55146,999,17101,.153E-3,.73E-6,0
ONEWEB-0567,2023-004H,2026-06-27T03:39:44.589024,13.18686067,.0002075,87.9166,333.4874,103.5188,256.6175,0,U,55147,999,17101,-.31632E-6,.13E-6,0
ONEWEB-0569,2023-004J,2026-06-27T03:21:14.167584,13.13469829,.0002091,87.8971,318.2386,123.8118,236.3211,0,U,55148,999,17148,.38324E-3,.153E-5,0
ONEWEB-0570,2023-004K,2026-06-27T03:27:35.557056,13.18686326,.0002247,87.9166,333.4867,91.1034,269.0355,0,U,55149,999,17100,.36086E-4,.27E-6,0
ONEWEB-0571,2023-004L,2026-06-26T23:39:21.384288,13.18684884,.0002725,87.9167,333.5178,118.5388,241.6019,0,U,55150,999,17099,-.15378E-3,-.48E-6,0
ONEWEB-0572,2023-004M,2026-06-27T02:05:42.237888,13.17648972,.0002039,87.9130,3.8956,93.5329,266.6035,0,U,55151,999,16878,-.75047E-4,-.16E-6,0
ONEWEB-0573,2023-004N,2026-06-27T03:08:09.804192,13.18687006,.0002549,87.9169,333.4904,109.5830,250.5577,0,U,55152,999,17100,-.18197E-3,-.59E-6,0
ONEWEB-0588,2023-004P,2026-06-27T02:58:27.756768,13.18685114,.0002356,87.9166,333.4918,92.1050,268.0352,0,U,55153,999,17100,-.23125E-3,-.78E-6,0
ONEWEB-0598,2023-004Q,2026-06-27T01:53:32.228736,13.11418035,.000207,87.8881,19.0989,108.0909,252.0444,0,U,55154,999,16719,.13395E-2,.487E-5,0
ONEWEB-0599,2023-004R,2026-06-27T01:09:49.027104,13.17649499,.0001684,87.9132,3.9019,94.8707,265.2617,0,U,55155,999,16878,-.28928E-4,.2E-7,0
ONEWEB-0614,2023-004S,2026-06-27T01:46:12.325728,13.11418740,.0001973,87.8880,19.1087,81.7710,278.3642,0,U,55156,999,16713,.65625E-3,.245E-5,0
ONEWEB-0616,2023-004T,2026-06-27T00:21:13.302720,13.17649393,.000101,87.9133,3.9124,104.8210,255.3033,0,U,55157,999,16899,-.99725E-5,.9E-7,0
